{"fetched_at":"2026-07-11T06:35:37.844Z","source":"https://celestrak.org/NORAD/elements/gp.php?NAME=NUSAT&FORMAT=JSON","constellation":"satellogic","records":[{"OBJECT_NAME":"NUSAT-47","OBJECT_ID":"2025-276CF","EPOCH":"2026-07-09T22:27:36.581184","CLASSIFICATION_TYPE":"U","MEAN_MOTION":15.20548776,"ECCENTRICITY":0.00001789,"INCLINATION":97.4184,"RA_OF_ASC_NODE":264.1849,"ARG_OF_PERICENTER":310.1908,"MEAN_ANOMALY":49.9312,"EPHEMERIS_TYPE":0,"NORAD_CAT_ID":66743,"ELEMENT_SET_NO":999,"REV_AT_EPOCH":3388,"BSTAR":0.00018940524,"MEAN_MOTION_DOT":0.00004076,"MEAN_MOTION_DDOT":0},{"OBJECT_NAME":"NUSAT-53 (JANE GOODALL)","OBJECT_ID":"2026-067S","EPOCH":"2026-07-10T07:50:04.441056","CLASSIFICATION_TYPE":"U","MEAN_MOTION":15.1881851,"ECCENTRICITY":0.00012063,"INCLINATION":97.4566,"RA_OF_ASC_NODE":149.5101,"ARG_OF_PERICENTER":4.9646,"MEAN_ANOMALY":355.1601,"EPHEMERIS_TYPE":0,"NORAD_CAT_ID":68432,"ELEMENT_SET_NO":999,"REV_AT_EPOCH":1545,"BSTAR":0.00017345891,"MEAN_MOTION_DOT":0.00003542,"MEAN_MOTION_DDOT":0},{"OBJECT_NAME":"NUSAT-54 (BRANCA MARQUES)","OBJECT_ID":"2026-067AC","EPOCH":"2026-07-10T02:49:18.054048","CLASSIFICATION_TYPE":"U","MEAN_MOTION":15.17965627,"ECCENTRICITY":0.00044132,"INCLINATION":97.4548,"RA_OF_ASC_NODE":149.1548,"ARG_OF_PERICENTER":16.7434,"MEAN_ANOMALY":343.3945,"EPHEMERIS_TYPE":0,"NORAD_CAT_ID":68442,"ELEMENT_SET_NO":999,"REV_AT_EPOCH":1541,"BSTAR":0.00017813328,"MEAN_MOTION_DOT":0.00003551,"MEAN_MOTION_DDOT":0}]}
